start=new Date('2021-11-30T00:00:00.000Z').valueOf();
sats=[{"SEMIMAJOR_AXIS":"6925.371","REV_AT_EPOCH":"2882","NORAD_CAT_ID":"48696","PERIOD":"95.593","GP_ID":"190723280","ELEMENT_SET_NO":"999","DECAY_DATE":null,"TLE_LINE2":"2 48696  53.0632 260.0602 0002121  66.6191 293.5021 15.06392788 28826","EPOCH":"2021-11-29T11:57:21.587328","ARG_OF_PERICENTER":"66.6191","COUNTRY_CODE":"US","RA_OF_ASC_NODE":"260.0602","SITE":"AFETR","MEAN_MOTION_DDOT":"0.0000000000000","TIME_SYSTEM":"UTC","OBJECT_ID":"2021-044BL","OBJECT_TYPE":"PAYLOAD","REF_FRAME":"TEME","CENTER_NAME":"EARTH","FILE":"3226898","APOAPSIS":"548.705","TLE_LINE1":"1 48696U 21044BL  21333.49816652  .00000630  00000-0  61193-4 0  9990","INCLINATION":"53.0632","RCS_SIZE":"LARGE","EPHEMERIS_TYPE":"0","MEAN_ELEMENT_THEORY":"SGP4","MEAN_ANOMALY":"293.5021","PERIAPSIS":"545.767","MEAN_MOTION":"15.06392788","OBJECT_NAME":"STARLINK-2753","MEAN_MOTION_DOT":"0.00000630","CLASSIFICATION_TYPE":"U","ECCENTRICITY":"0.00021210","LAUNCH_DATE":"2021-05-26","BSTAR":"0.00006119300000"},{"EPOCH":"2021-11-29T22:18:20.454624","ARG_OF_PERICENTER":"69.7511","MEAN_MOTION_DDOT":"0.0000000000000","COUNTRY_CODE":"US","RA_OF_ASC_NODE":"258.1400","SITE":"AFETR","ELEMENT_SET_NO":"999","GP_ID":"190726877","PERIOD":"95.592","SEMIMAJOR_AXIS":"6925.365","NORAD_CAT_ID":"48697","REV_AT_EPOCH":"2972","DECAY_DATE":null,"TLE_LINE2":"2 48697  53.0571 258.1400 0002126  69.7511 290.3706 15.06394569 29722","MEAN_MOTION":"15.06394569","MEAN_ANOMALY":"290.3706","MEAN_ELEMENT_THEORY":"SGP4","RCS_SIZE":"LARGE","INCLINATION":"53.0571","EPHEMERIS_TYPE":"0","PERIAPSIS":"545.758","OBJECT_NAME":"STARLINK-2715","LAUNCH_DATE":"2021-05-26","ECCENTRICITY":"0.00021260","BSTAR":"0.00000956730000","CLASSIFICATION_TYPE":"U","MEAN_MOTION_DOT":"-0.00000139","REF_FRAME":"TEME","OBJECT_TYPE":"PAYLOAD","CENTER_NAME":"EARTH","OBJECT_ID":"2021-044BM","TIME_SYSTEM":"UTC","FILE":"3227037","APOAPSIS":"548.703","TLE_LINE1":"1 48697U 21044BM  21333.92940341 -.00000139  00000-0  95673-5 0  9998"},{"LAUNCH_DATE":"2021-06-30","ECCENTRICITY":"0.00088720","BSTAR":"-0.00127790000000","MEAN_MOTION_DOT":"-0.00024528","CLASSIFICATION_TYPE":"U","OBJECT_NAME":"STARLINK-3003","MEAN_MOTION":"15.15992913","PERIAPSIS":"511.850","MEAN_ELEMENT_THEORY":"SGP4","MEAN_ANOMALY":"125.1273","RCS_SIZE":"LARGE","EPHEMERIS_TYPE":"0","INCLINATION":"97.5251","APOAPSIS":"524.086","TLE_LINE1":"1 48879U 21059A   21333.91667824 -.00024528  00000-0 -12779-2 0  9999","FILE":"3227094","CENTER_NAME":"EARTH","REF_FRAME":"TEME","OBJECT_TYPE":"PAYLOAD","OBJECT_ID":"2021-059A","TIME_SYSTEM":"UTC","MEAN_MOTION_DDOT":"0.0000000000000","SITE":"AFETR","COUNTRY_CODE":"US","RA_OF_ASC_NODE":"101.2433","ARG_OF_PERICENTER":"132.0580","EPOCH":"2021-11-29T22:00:00.999936","TLE_LINE2":"2 48879  97.5251 101.2433 0008872 132.0580 125.1273 15.15992913  3611","DECAY_DATE":null,"GP_ID":"190751396","ELEMENT_SET_NO":"999","PERIOD":"94.987","NORAD_CAT_ID":"48879","REV_AT_EPOCH":"361","SEMIMAJOR_AXIS":"6896.103"},{"SEMIMAJOR_AXIS":"6896.103","NORAD_CAT_ID":"48880","REV_AT_EPOCH":"361","ELEMENT_SET_NO":"999","GP_ID":"190751650","PERIOD":"94.987","DECAY_DATE":null,"TLE_LINE2":"2 48880  97.5250 101.2514 0003333 183.7491  92.9773 15.15992983  3616","EPOCH":"2021-11-29T22:00:00.999936","ARG_OF_PERICENTER":"183.7491","COUNTRY_CODE":"US","RA_OF_ASC_NODE":"101.2514","SITE":"AFETR","MEAN_MOTION_DDOT":"0.0000000000000","TIME_SYSTEM":"UTC","OBJECT_ID":"2021-059B","REF_FRAME":"TEME","OBJECT_TYPE":"PAYLOAD","CENTER_NAME":"EARTH","FILE":"3227094","APOAPSIS":"520.266","TLE_LINE1":"1 48880U 21059B   21333.91667824 -.00022815  00000-0 -11892-2 0  9993","MEAN_ELEMENT_THEORY":"SGP4","MEAN_ANOMALY":"92.9773","INCLINATION":"97.5250","RCS_SIZE":"LARGE","EPHEMERIS_TYPE":"0","PERIAPSIS":"515.669","MEAN_MOTION":"15.15992983","OBJECT_NAME":"STARLINK-3004","BSTAR":"-0.00118920000000","LAUNCH_DATE":"2021-06-30","ECCENTRICITY":"0.00033330","MEAN_MOTION_DOT":"-0.00022815","CLASSIFICATION_TYPE":"U"},{"MEAN_MOTION_DDOT":"0.0000000000000","SITE":"AFETR","RA_OF_ASC_NODE":"101.2593","COUNTRY_CODE":"US","ARG_OF_PERICENTER":"163.3999","EPOCH":"2021-11-29T22:00:00.999936","TLE_LINE2":"2 48881  97.5255 101.2593 0004290 163.3999 105.4188 15.15989874  3614","DECAY_DATE":null,"GP_ID":"190751247","ELEMENT_SET_NO":"999","PERIOD":"94.987","NORAD_CAT_ID":"48881","REV_AT_EPOCH":"361","SEMIMAJOR_AXIS":"6896.112","BSTAR":"-0.00121240000000","LAUNCH_DATE":"2021-06-30","ECCENTRICITY":"0.00042900","MEAN_MOTION_DOT":"-0.00023258","CLASSIFICATION_TYPE":"U","OBJECT_NAME":"STARLINK-3005","MEAN_MOTION":"15.15989874","PERIAPSIS":"515.019","MEAN_ELEMENT_THEORY":"SGP4","MEAN_ANOMALY":"105.4188","INCLINATION":"97.5255","RCS_SIZE":"LARGE","EPHEMERIS_TYPE":"0","TLE_LINE1":"1 48881U 21059C   21333.91667824 -.00023258  00000-0 -12124-2 0  9995","APOAPSIS":"520.935","FILE":"3227094","CENTER_NAME":"EARTH","REF_FRAME":"TEME","OBJECT_TYPE":"PAYLOAD","TIME_SYSTEM":"UTC","OBJECT_ID":"2021-059C"},{"OBJECT_NAME":"STARLINK-3096","LAUNCH_DATE":"2021-09-14","BSTAR":"-0.00023856000000","ECCENTRICITY":"0.00034580","CLASSIFICATION_TYPE":"U","MEAN_MOTION_DOT":"-0.00028593","MEAN_ELEMENT_THEORY":"SGP4","MEAN_ANOMALY":"95.2257","RCS_SIZE":"LARGE","INCLINATION":"69.9982","EPHEMERIS_TYPE":"0","PERIAPSIS":"357.290","MEAN_MOTION":"15.69748113","FILE":"3227094","TLE_LINE1":"1 49131U 21082B   21333.91667824 -.00028593  00000-0 -23856-3 0  9992","APOAPSIS":"361.950","TIME_SYSTEM":"UTC","OBJECT_ID":"2021-082B","REF_FRAME":"TEME","OBJECT_TYPE":"PAYLOAD","CENTER_NAME":"EARTH","COUNTRY_CODE":"US","RA_OF_ASC_NODE":"271.0426","SITE":"AFWTR","MEAN_MOTION_DDOT":"0.0000000000000","EPOCH":"2021-11-29T22:00:00.999936","ARG_OF_PERICENTER":"276.3079","DECAY_DATE":null,"TLE_LINE2":"2 49131  69.9982 271.0426 0003458 276.3079  95.2257 15.69748113  3704","SEMIMAJOR_AXIS":"6737.755","NORAD_CAT_ID":"49131","REV_AT_EPOCH":"370","ELEMENT_SET_NO":"999","GP_ID":"190751276","PERIOD":"91.734"},{"RCS_SIZE":"LARGE","EPHEMERIS_TYPE":"0","INCLINATION":"69.9999","MEAN_ANOMALY":"208.1271","MEAN_ELEMENT_THEORY":"SGP4","PERIAPSIS":"441.402","MEAN_MOTION":"15.40825472","OBJECT_NAME":"STARLINK-3090","MEAN_MOTION_DOT":"-0.00654195","CLASSIFICATION_TYPE":"U","LAUNCH_DATE":"2021-09-14","ECCENTRICITY":"0.00033300","BSTAR":"-0.01707900000000","OBJECT_ID":"2021-082C","TIME_SYSTEM":"UTC","OBJECT_TYPE":"PAYLOAD","REF_FRAME":"TEME","CENTER_NAME":"EARTH","FILE":"3227081","APOAPSIS":"445.945","TLE_LINE1":"1 49132U 21082C   21334.00001157 -.00654195  00000-0 -17079-1 0  9996","EPOCH":"2021-11-30T00:00:00.999648","ARG_OF_PERICENTER":"279.1947","RA_OF_ASC_NODE":"272.0637","COUNTRY_CODE":"US","SITE":"AFWTR","MEAN_MOTION_DDOT":"0.0000000000000","SEMIMAJOR_AXIS":"6821.809","REV_AT_EPOCH":"1213","NORAD_CAT_ID":"49132","PERIOD":"93.456","GP_ID":"190727833","ELEMENT_SET_NO":"999","DECAY_DATE":null,"TLE_LINE2":"2 49132  69.9999 272.0637 0003330 279.1947 208.1271 15.40825472 12133"},{"EPOCH":"2021-11-30T00:00:00.999648","ARG_OF_PERICENTER":"280.3855","RA_OF_ASC_NODE":"272.0691","COUNTRY_CODE":"US","SITE":"AFWTR","MEAN_MOTION_DDOT":"0.0000000000000","SEMIMAJOR_AXIS":"6821.751","NORAD_CAT_ID":"49133","REV_AT_EPOCH":"1213","ELEMENT_SET_NO":"999","GP_ID":"190727834","PERIOD":"93.455","DECAY_DATE":null,"TLE_LINE2":"2 49133  70.0000 272.0691 0003396 280.3855 212.3943 15.40845110 12138","MEAN_ANOMALY":"212.3943","MEAN_ELEMENT_THEORY":"SGP4","RCS_SIZE":"LARGE","EPHEMERIS_TYPE":"0","INCLINATION":"70.0000","PERIAPSIS":"441.299","MEAN_MOTION":"15.40845110","OBJECT_NAME":"STARLINK-3077","ECCENTRICITY":"0.00033960","LAUNCH_DATE":"2021-09-14","BSTAR":"-0.01720800000000","MEAN_MOTION_DOT":"-0.00659215","CLASSIFICATION_TYPE":"U","OBJECT_ID":"2021-082D","TIME_SYSTEM":"UTC","REF_FRAME":"TEME","OBJECT_TYPE":"PAYLOAD","CENTER_NAME":"EARTH","FILE":"3227081","TLE_LINE1":"1 49133U 21082D   21334.00001157 -.00659215  00000-0 -17208-1 0  9999","APOAPSIS":"445.932"},{"EPOCH":"2021-11-30T00:00:00.999648","ARG_OF_PERICENTER":"279.0172","MEAN_MOTION_DDOT":"0.0000000000000","COUNTRY_CODE":"US","RA_OF_ASC_NODE":"272.0580","SITE":"AFWTR","PERIOD":"93.446","ELEMENT_SET_NO":"999","GP_ID":"190727830","SEMIMAJOR_AXIS":"6821.291","REV_AT_EPOCH":"1333","NORAD_CAT_ID":"49134","DECAY_DATE":null,"TLE_LINE2":"2 49134  70.0001 272.0580 0003365 279.0172 233.7692 15.41000776 13333","MEAN_MOTION":"15.41000776","RCS_SIZE":"LARGE","EPHEMERIS_TYPE":"0","INCLINATION":"70.0001","MEAN_ANOMALY":"233.7692","MEAN_ELEMENT_THEORY":"SGP4","PERIAPSIS":"440.861","OBJECT_NAME":"STARLINK-3078","MEAN_MOTION_DOT":"-0.00659204","CLASSIFICATION_TYPE":"U","LAUNCH_DATE":"2021-09-14","BSTAR":"-0.01711900000000","ECCENTRICITY":"0.00033650","OBJECT_TYPE":"PAYLOAD","REF_FRAME":"TEME","CENTER_NAME":"EARTH","TIME_SYSTEM":"UTC","OBJECT_ID":"2021-082E","FILE":"3227081","TLE_LINE1":"1 49134U 21082E   21334.00001157 -.00659204  00000-0 -17119-1 0  9999","APOAPSIS":"445.452"},{"FILE":"3227094","APOAPSIS":"362.050","TLE_LINE1":"1 49135U 21082F   21333.91667824 -.00007877  00000-0 -64297-4 0  9993","OBJECT_ID":"2021-082F","TIME_SYSTEM":"UTC","REF_FRAME":"TEME","OBJECT_TYPE":"PAYLOAD","CENTER_NAME":"EARTH","OBJECT_NAME":"STARLINK-3073","LAUNCH_DATE":"2021-09-14","BSTAR":"-0.00006429700000","ECCENTRICITY":"0.00035590","MEAN_MOTION_DOT":"-0.00007877","CLASSIFICATION_TYPE":"U","MEAN_ANOMALY":"98.3764","MEAN_ELEMENT_THEORY":"SGP4","EPHEMERIS_TYPE":"0","RCS_SIZE":"LARGE","INCLINATION":"69.9982","PERIAPSIS":"357.254","MEAN_MOTION":"15.69736907","DECAY_DATE":null,"TLE_LINE2":"2 49135  69.9982 271.0330 0003559 279.5122  98.3764 15.69736907  3703","SEMIMAJOR_AXIS":"6737.787","NORAD_CAT_ID":"49135","REV_AT_EPOCH":"370","GP_ID":"190751553","ELEMENT_SET_NO":"999","PERIOD":"91.735","COUNTRY_CODE":"US","RA_OF_ASC_NODE":"271.0330","SITE":"AFWTR","MEAN_MOTION_DDOT":"0.0000000000000","EPOCH":"2021-11-29T22:00:00.999936","ARG_OF_PERICENTER":"279.5122"}];
